{"type":"FeatureCollection","features":[{"type":"Feature","geometry":{"type":"LineString","coordinates":[[-87.67289823,42.0190711],[-87.67142664,42.01785791],[-87.66988791,42.01658467],[-87.66718909,42.01422277],[-87.66630395,42.0129817],[-87.6660196,42.01184076],[-87.66583738,42.00687393],[-87.66553138,42.00525755],[-87.66477402,42.00382323],[-87.66346757,42.00264578],[-87.66225499,42.00187675],[-87.66106647,42.00108123],[-87.66049767,42.0005971],[-87.66005286,42.00009317],[-87.65965276,41.99944232],[-87.65943128,41.9988109],[-87.65927345,41.9979913],[-87.65921699,41.9963306],[-87.65920805,41.99367213],[-87.65908163,41.99026737],[-87.65887936,41.98450984],[-87.65875624,41.98060069],[-87.6585937,41.97523586],[-87.65849873,41.96914681],[-87.65839005,41.96688937],[-87.65819611,41.96622633],[-87.65756924,41.96397833],[-87.65684249,41.95693046],[-87.6567456,41.95430736],[-87.65657109,41.95397409],[-87.65624079,41.95378166],[-87.65493516,41.95378281],[-87.65394484,41.95371051],[-87.65373912,41.95352323],[-87.65367735,41.9531194],[-87.65366408,41.95109075],[-87.6536317,41.94743586],[-87.65352063,41.94448486],[-87.65342414,41.94407231],[-87.65336833,41.94318156],[-87.65343025,41.94238011],[-87.65342868,41.94146471],[-87.65338625,41.93975861],[-87.65336938,41.93865814],[-87.6532809,41.93627449],[-87.65322253,41.93491807],[-87.65313662,41.93273936],[-87.65305256,41.9309096],[-87.65296799,41.92871064],[-87.65292736,41.92715665],[-87.6528716,41.92505923],[-87.6527469,41.92113642],[-87.65263065,41.91764042],[-87.65250619,41.91406733],[-87.65249158,41.91308909],[-87.65141278,41.91226345],[-87.64786012,41.90971558],[-87.63993979,41.90404864],[-87.63926276,41.90379868],[-87.63447589,41.90387616],[-87.62892006,41.90394399],[-87.62870053,41.90382636],[-87.62862588,41.90317122],[-87.6282699,41.89914434],[-87.62809392,41.8941267],[-87.62800109,41.89072257],[-87.6278366,41.88596891],[-87.62775412,41.88322256],[-87.62757157,41.87688237],[-87.62748487,41.8740471],[-87.6274748,41.87077122],[-87.6273652,41.86576184],[-87.62756137,41.86338132],[-87.62804069,41.86297215],[-87.63018358,41.86138924],[-87.63102009,41.86028354],[-87.63130067,41.85977144],[-87.63144351,41.85894808],[-87.63136697,41.85575976],[-87.63106742,41.85352108],[-87.63085563,41.85268415],[-87.6306945,41.85108007],[-87.63085504,41.84837004],[-87.63115509,41.84686158],[-87.63127751,41.8458642],[-87.63114151,41.84285945],[-87.63087273,41.83953315],[-87.63064204,41.83119841],[-87.63044186,41.8226934],[-87.63025754,41.81524784],[-87.63019925,41.8124752],[-87.63038506,41.81148021],[-87.63103154,41.81034598],[-87.63157306,41.80933766],[-87.63161948,41.80919675],[-87.63174632,41.80870823],[-87.63181247,41.80805364],[-87.63162605,41.80535535],[-87.63132784,41.80084511],[-87.63115048,41.79390951],[-87.63103692,41.78722334],[-87.63105072,41.78270768],[-87.63093779,41.77942927],[-87.63065223,41.77847605],[-87.63004525,41.777497],[-87.62926197,41.77677751],[-87.62750943,41.77541666],[-87.62704545,41.77491352],[-87.62652408,41.77416836],[-87.62635546,41.77383797],[-87.62603336,41.7729651],[-87.62595937,41.77253214],[-87.62585457,41.77015679],[-87.62567791,41.76290358],[-87.62550141,41.75516632],[-87.62525582,41.75264779],[-87.62518409,41.75042018],[-87.62482856,41.73949124],[-87.6247275,41.73449091],[-87.62454944,41.72800917]]},"properties":{"route_id":"Red","route_name":"Red Line","route_color":"#C60C30","shape_id":309100007,"is_loop":false}},{"type":"Feature","geometry":{"type":"LineString","coordinates":[[-87.62442048,41.72238381],[-87.62464,41.73212529],[-87.62478962,41.73614271],[-87.62500379,41.74460729],[-87.62521059,41.75189545],[-87.62538056,41.75388402],[-87.62558006,41.75815482],[-87.62581509,41.7683757],[-87.62592574,41.77218895],[-87.62601272,41.77287213],[-87.62619976,41.77349661],[-87.62644983,41.77402865],[-87.62683683,41.77463963],[-87.62725643,41.77515133],[-87.62882631,41.77644972],[-87.62979586,41.77723667],[-87.63048961,41.77815639],[-87.63082444,41.77893116],[-87.63100619,41.78054217],[-87.63112781,41.78559009],[-87.63110491,41.79168028],[-87.63124705,41.79776157],[-87.63146761,41.80306098],[-87.63179485,41.80769015],[-87.63177742,41.80853735],[-87.63168607,41.80899999],[-87.63159195,41.80929387],[-87.63134186,41.8098554],[-87.63042054,41.81139261],[-87.63022426,41.8121462],[-87.63021665,41.81351534],[-87.6303147,41.8176945],[-87.63056472,41.82749159],[-87.63081707,41.83721954],[-87.63103737,41.84184509],[-87.63128497,41.84547944],[-87.631176,41.84669734],[-87.63101765,41.84748487],[-87.63069173,41.84961016],[-87.63082648,41.85243623],[-87.63097357,41.85321365],[-87.63128301,41.85454796],[-87.63144621,41.85870035],[-87.63137026,41.8595265],[-87.63112778,41.86013723],[-87.63058735,41.86093622],[-87.62849626,41.86269385],[-87.62768313,41.86326204],[-87.62731475,41.86404445],[-87.62745716,41.8692225],[-87.62749291,41.8730651],[-87.62754907,41.87593278],[-87.62770221,41.88075241],[-87.62784094,41.88574827],[-87.62799508,41.88965646],[-87.62804525,41.89234206],[-87.6281821,41.89667907],[-87.6283537,41.90212819],[-87.62867225,41.90376398],[-87.6288082,41.90391085],[-87.63141805,41.90392817],[-87.63896239,41.90379837],[-87.63971786,41.90392543],[-87.6455511,41.90807489],[-87.65070378,41.91175337],[-87.65243015,41.91299535],[-87.65249957,41.91327602],[-87.65261557,41.91718721],[-87.65265007,41.91822443],[-87.65282296,41.92353018],[-87.65289711,41.92599911],[-87.65296055,41.92842599],[-87.65302948,41.93030959],[-87.65310161,41.93218483],[-87.65320224,41.93445997],[-87.65327221,41.93604047],[-87.65333158,41.93764005],[-87.65338068,41.93939549],[-87.65340284,41.94084027],[-87.65345968,41.94218468],[-87.6533833,41.94288927],[-87.65340817,41.94389945],[-87.65348046,41.94435616],[-87.65362552,41.9468998],[-87.6536514,41.95060781],[-87.65363169,41.95246384],[-87.65369848,41.95343882],[-87.65385644,41.95365239],[-87.65431225,41.95376141],[-87.65606879,41.95377178],[-87.65647114,41.95388491],[-87.65672327,41.95417434],[-87.65677479,41.95491444],[-87.65700442,41.96182205],[-87.6580271,41.96582716],[-87.65836435,41.96669789],[-87.65847134,41.96838401],[-87.65853573,41.97346119],[-87.65872216,41.97967653],[-87.65884605,41.9835121],[-87.65902018,41.98881974],[-87.65913626,41.9923609],[-87.65919495,41.99549799],[-87.65927228,41.99751756],[-87.65936055,41.99850233],[-87.65956256,41.99922562],[-87.6599008,41.99989451],[-87.66035746,42.0004445],[-87.66083355,42.00090723],[-87.66166325,42.00153284],[-87.66343646,42.00262572],[-87.6644812,42.00348793],[-87.66527697,42.00467313],[-87.66577548,42.00619233],[-87.66597704,42.01059767],[-87.66613201,42.01260094],[-87.66689628,42.01388965],[-87.66909789,42.01588406],[-87.67079302,42.01733363],[-87.67233005,42.01860324]]},"properties":{"route_id":"Red","route_name":"Red Line","route_color":"#C60C30","shape_id":309100008,"is_loop":false}},{"type":"Feature","geometry":{"type":"LineString","coordinates":[[-87.69073531,42.07316065],[-87.68954158,42.07112637],[-87.68853039,42.0694124],[-87.6873127,42.06700301],[-87.6860869,42.06480126],[-87.68485448,42.06274914],[-87.68374178,42.06066419],[-87.6836098,42.06026349],[-87.68339938,42.05940041],[-87.68333344,42.05845366],[-87.68336692,42.05739481],[-87.68351672,42.05530573],[-87.68354805,42.05297376],[-87.6834934,42.05166091],[-87.68354871,42.04771797],[-87.68346772,42.0467655],[-87.68277245,42.04528003],[-87.68186115,42.04275117],[-87.68147791,42.04105903],[-87.68034023,42.03592562],[-87.67961746,42.03364005],[-87.67892127,42.03060822],[-87.67811559,42.0261069],[-87.67743815,42.02275115],[-87.6770593,42.02209376],[-87.67406222,42.02002995],[-87.67289823,42.0190711],[-87.67142664,42.01785791],[-87.66988791,42.01658467],[-87.66718909,42.01422277],[-87.66630395,42.0129817],[-87.6660196,42.01184076],[-87.66583738,42.00687393],[-87.66553138,42.00525755],[-87.66477402,42.00382323],[-87.66346757,42.00264578],[-87.66225499,42.00187675],[-87.66106647,42.00108123],[-87.66049767,42.0005971],[-87.66005286,42.00009317],[-87.65965276,41.99944232],[-87.65943128,41.9988109],[-87.65927345,41.9979913],[-87.65921699,41.9963306],[-87.65920805,41.99367213],[-87.65908163,41.99026737],[-87.65887936,41.98450984],[-87.65875624,41.98060069],[-87.6585937,41.97523586],[-87.65849873,41.96914681],[-87.65839005,41.96688937],[-87.65819611,41.96622633],[-87.65756924,41.96397833],[-87.65684249,41.95693046],[-87.6567456,41.95430736],[-87.65657109,41.95397409],[-87.65624079,41.95378166],[-87.65493516,41.95378281],[-87.65394484,41.95371051],[-87.65373912,41.95352323],[-87.65367735,41.9531194],[-87.65366408,41.95109075],[-87.6536317,41.94743586],[-87.65352063,41.94448486],[-87.65342414,41.94407231],[-87.65336833,41.94318156],[-87.65343025,41.94238011],[-87.65338068,41.93939549],[-87.65333158,41.93764005],[-87.65327221,41.93604047],[-87.65320224,41.93445997],[-87.65310161,41.93218483],[-87.65302948,41.93030959],[-87.65296055,41.92842599],[-87.65289711,41.92599911],[-87.65282296,41.92353018],[-87.65265007,41.91822443],[-87.65261557,41.91718721],[-87.65242762,41.91377308],[-87.65208388,41.91339614],[-87.65017403,41.91203824],[-87.64957197,41.91165262],[-87.64921015,41.91153491],[-87.64863264,41.9115126],[-87.64768598,41.91146686],[-87.64741025,41.9111326],[-87.64736253,41.91071501],[-87.64718539,41.91045218],[-87.64682346,41.91034626],[-87.64580959,41.9103496],[-87.64255542,41.91039499],[-87.63975191,41.91041285],[-87.63798162,41.91041707],[-87.63757619,41.91027875],[-87.63730179,41.90999845],[-87.63725501,41.90951546],[-87.63713826,41.90607503],[-87.63702936,41.90368528],[-87.6369507,41.90312351],[-87.63671533,41.9027997],[-87.63649556,41.90245871],[-87.63647614,41.90211894],[-87.63659541,41.90178001],[-87.63670444,41.90132012],[-87.63664507,41.90008704],[-87.63657075,41.89867382],[-87.63649811,41.89726316],[-87.63623135,41.89699385],[-87.63574075,41.8965528],[-87.63565097,41.89542788],[-87.63558594,41.89261417],[-87.63548668,41.89031002],[-87.63524568,41.89007795],[-87.6347597,41.88994413],[-87.63436951,41.88984824],[-87.63407745,41.88963159],[-87.63397911,41.88897579],[-87.63285147,41.885738],[-87.63020427,41.88574537],[-87.62982204,41.88574626],[-87.62784094,41.88574827],[-87.62656012,41.8857441],[-87.62635259,41.88569726],[-87.6262587,41.88557788],[-87.62622786,41.88444275],[-87.62610365,41.87951807],[-87.62635488,41.87696833],[-87.62821489,41.87691619],[-87.63263213,41.87685673],[-87.63353383,41.87688843],[-87.63369886,41.87707066],[-87.63378832,41.88014877],[-87.63389482,41.88441348],[-87.63397911,41.88897579],[-87.63407745,41.88963159],[-87.63436951,41.88984824],[-87.6347597,41.88994413],[-87.63524568,41.89007795],[-87.63548668,41.89031002],[-87.63558594,41.89261417],[-87.63565097,41.89542788],[-87.63574075,41.8965528],[-87.63623135,41.89699385],[-87.63649811,41.89726316],[-87.63657075,41.89867382],[-87.63664507,41.90008704],[-87.63670444,41.90132012],[-87.63659541,41.90178001],[-87.63647614,41.90211894],[-87.63649556,41.90245871],[-87.63671533,41.9027997],[-87.6369507,41.90312351],[-87.63702936,41.90368528],[-87.63713826,41.90607503],[-87.63725501,41.90951546],[-87.63730179,41.90999845],[-87.63757619,41.91027875],[-87.63798162,41.91041707],[-87.63975191,41.91041285],[-87.64255542,41.91039499],[-87.64580959,41.9103496],[-87.64682346,41.91034626],[-87.64718539,41.91045218],[-87.64736253,41.91071501],[-87.64741025,41.9111326],[-87.64768598,41.91146686],[-87.64863264,41.9115126],[-87.64921015,41.91153491],[-87.64957197,41.91165262],[-87.65017403,41.91203824],[-87.65208388,41.91339614],[-87.65242762,41.91377308],[-87.65261557,41.91718721],[-87.65265007,41.91822443],[-87.65282296,41.92353018],[-87.65289711,41.92599911],[-87.65296055,41.92842599],[-87.65302948,41.93030959],[-87.65310161,41.93218483],[-87.65320224,41.93445997],[-87.65327221,41.93604047],[-87.65333158,41.93764005],[-87.65338068,41.93939549],[-87.65343025,41.94238011],[-87.65336833,41.94318156],[-87.65342414,41.94407231],[-87.65352063,41.94448486],[-87.6536317,41.94743586],[-87.65366408,41.95109075],[-87.65367735,41.9531194],[-87.65373912,41.95352323],[-87.65394484,41.95371051],[-87.65493516,41.95378281],[-87.65624079,41.95378166],[-87.65657109,41.95397409],[-87.6567456,41.95430736],[-87.65684249,41.95693046],[-87.65756924,41.96397833],[-87.65819611,41.96622633],[-87.65839005,41.96688937],[-87.65849873,41.96914681],[-87.6585937,41.97523586],[-87.65875624,41.98060069],[-87.65887936,41.98450984],[-87.65908163,41.99026737],[-87.65920805,41.99367213],[-87.65921699,41.9963306],[-87.65927345,41.9979913],[-87.65943128,41.9988109],[-87.65965276,41.99944232],[-87.66005286,42.00009317],[-87.66049767,42.0005971],[-87.66106647,42.00108123],[-87.66225499,42.00187675],[-87.66346757,42.00264578],[-87.66477402,42.00382323],[-87.66553138,42.00525755],[-87.66583738,42.00687393],[-87.6660196,42.01184076],[-87.66630395,42.0129817],[-87.66718909,42.01422277],[-87.66988791,42.01658467],[-87.67142664,42.01785791],[-87.67289823,42.0190711],[-87.67406222,42.02002995],[-87.6770593,42.02209376],[-87.67743815,42.02275115],[-87.67811559,42.0261069],[-87.67892127,42.03060822],[-87.67961746,42.03364005],[-87.68034023,42.03592562],[-87.68147791,42.04105903],[-87.68186115,42.04275117],[-87.68277245,42.04528003],[-87.68346772,42.0467655],[-87.68354871,42.04771797],[-87.6834934,42.05166091],[-87.68354805,42.05297376],[-87.68351672,42.05530573],[-87.68336692,42.05739481],[-87.68333344,42.05845366],[-87.68339938,42.05940041],[-87.6836098,42.06026349],[-87.68374178,42.06066419],[-87.68485448,42.06274914],[-87.6860869,42.06480126],[-87.6873127,42.06700301],[-87.68853039,42.0694124],[-87.68954158,42.07112637],[-87.69073531,42.07316065]]},"properties":{"route_id":"P","route_name":"Purple Line","route_color":"#522398","shape_id":309100024,"is_loop":false}},{"type":"Feature","geometry":{"type":"LineString","coordinates":[[-87.67289823,42.0190711],[-87.67351474,42.01956757],[-87.67388825,42.0198713],[-87.67406222,42.02002995],[-87.67574146,42.02130705],[-87.67689731,42.02198224],[-87.6770593,42.02209376],[-87.67719127,42.02224104],[-87.67730809,42.02241864],[-87.67743815,42.02275115],[-87.67752604,42.02321888],[-87.67775935,42.02432884],[-87.67811559,42.0261069],[-87.6783352,42.02761973],[-87.67856049,42.02895139],[-87.67892127,42.03060822],[-87.67926463,42.03212411],[-87.6795437,42.03346359],[-87.67961746,42.03364005],[-87.67983129,42.03397222],[-87.67994196,42.03423338],[-87.68034023,42.03592562],[-87.6808549,42.03824521],[-87.68137009,42.04051763],[-87.68147791,42.04105903],[-87.68152805,42.04132971],[-87.68160777,42.04166252],[-87.68186115,42.04275117],[-87.68222697,42.04393059],[-87.68242566,42.04445561],[-87.68277245,42.04528003],[-87.68302376,42.04583351],[-87.68326747,42.04639258],[-87.68346772,42.0467655],[-87.68358623,42.04700277],[-87.68358531,42.04709289],[-87.68354871,42.04771797],[-87.68354834,42.04849536],[-87.68353556,42.04900791],[-87.6834934,42.05166091],[-87.68349574,42.05217355],[-87.68350152,42.05234821],[-87.68354805,42.05297376],[-87.68356611,42.05416811],[-87.68354617,42.05464118],[-87.68351672,42.05530573],[-87.68352701,42.05577898],[-87.68339447,42.05691614],[-87.68336692,42.05739481],[-87.68333861,42.0579467],[-87.68334266,42.05829035],[-87.68333344,42.05845366],[-87.68333979,42.058572],[-87.68335782,42.05902839],[-87.68339938,42.05940041],[-87.68343476,42.05963721],[-87.68354418,42.06002652],[-87.6836098,42.06026349],[-87.68366093,42.06043841],[-87.68369775,42.06053438],[-87.68374178,42.06066419],[-87.68382286,42.06086745],[-87.68417182,42.06148907],[-87.68485448,42.06274914],[-87.68562304,42.06399443],[-87.68573736,42.06419328],[-87.6860869,42.06480126],[-87.68651596,42.06557194],[-87.68681973,42.06611758],[-87.6873127,42.06700301],[-87.68792094,42.06823287],[-87.68821525,42.06879331],[-87.68853039,42.0694124],[-87.68891593,42.07013301],[-87.68925332,42.0706724],[-87.68954158,42.07112637],[-87.68985798,42.07162306],[-87.69032867,42.07240268],[-87.69073531,42.07316065]]},"properties":{"route_id":"P","route_name":"Purple Line","route_color":"#522398","shape_id":309100025,"is_loop":false}},{"type":"Feature","geometry":{"type":"LineString","coordinates":[[-87.69073531,42.07316065],[-87.69032867,42.07240268],[-87.68985798,42.07162306],[-87.68954158,42.07112637],[-87.68925332,42.0706724],[-87.68891593,42.07013301],[-87.68853039,42.0694124],[-87.68821525,42.06879331],[-87.68792094,42.06823287],[-87.6873127,42.06700301],[-87.68681973,42.06611758],[-87.68651596,42.06557194],[-87.6860869,42.06480126],[-87.68573736,42.06419328],[-87.68562304,42.06399443],[-87.68485448,42.06274914],[-87.68417182,42.06148907],[-87.68382286,42.06086745],[-87.68374178,42.06066419],[-87.68369775,42.06053438],[-87.68366093,42.06043841],[-87.6836098,42.06026349],[-87.68354418,42.06002652],[-87.68343476,42.05963721],[-87.68339938,42.05940041],[-87.68335782,42.05902839],[-87.68333979,42.058572],[-87.68333344,42.05845366],[-87.68334266,42.05829035],[-87.68333861,42.0579467],[-87.68336692,42.05739481],[-87.68339447,42.05691614],[-87.68352701,42.05577898],[-87.68351672,42.05530573],[-87.68354617,42.05464118],[-87.68356611,42.05416811],[-87.68354805,42.05297376],[-87.68350152,42.05234821],[-87.68349574,42.05217355],[-87.6834934,42.05166091],[-87.68353556,42.04900791],[-87.68354834,42.04849536],[-87.68354871,42.04771797],[-87.68358531,42.04709289],[-87.68358623,42.04700277],[-87.68346772,42.0467655],[-87.68326747,42.04639258],[-87.68302376,42.04583351],[-87.68277245,42.04528003],[-87.68242566,42.04445561],[-87.68222697,42.04393059],[-87.68186115,42.04275117],[-87.68160777,42.04166252],[-87.68152805,42.04132971],[-87.68147791,42.04105903],[-87.68137009,42.04051763],[-87.6808549,42.03824521],[-87.68034023,42.03592562],[-87.67994196,42.03423338],[-87.67983129,42.03397222],[-87.67961746,42.03364005],[-87.6795437,42.03346359],[-87.67926463,42.03212411],[-87.67892127,42.03060822],[-87.67856049,42.02895139],[-87.6783352,42.02761973],[-87.67811559,42.0261069],[-87.67775935,42.02432884],[-87.67752604,42.02321888],[-87.67743815,42.02275115],[-87.67730809,42.02241864],[-87.67719127,42.02224104],[-87.6770593,42.02209376],[-87.67689731,42.02198224],[-87.67574146,42.02130705],[-87.67406222,42.02002995],[-87.67388825,42.0198713],[-87.67351474,42.01956757],[-87.67289823,42.0190711]]},"properties":{"route_id":"P","route_name":"Purple Line","route_color":"#522398","shape_id":309100026,"is_loop":false}},{"type":"Feature","geometry":{"type":"LineString","coordinates":[[-87.67289823,42.0190711],[-87.67449193,42.02021331],[-87.67556153,42.02081265],[-87.67660556,42.02126354],[-87.67733734,42.02144001],[-87.67783736,42.02153672],[-87.67916256,42.02169028],[-87.68484414,42.02171524],[-87.68746185,42.02170321],[-87.68923453,42.02180747],[-87.69049323,42.02195589],[-87.69161476,42.02211663],[-87.69333314,42.02226486],[-87.69580504,42.0222093],[-87.69750915,42.02223609],[-87.69978984,42.02247583],[-87.70182036,42.02263537],[-87.70660918,42.02252875],[-87.70832546,42.02251252],[-87.71022389,42.02255183],[-87.71133134,42.02257286],[-87.71382653,42.02266007],[-87.7153382,42.02266312],[-87.71790666,42.0226556],[-87.71852676,42.02263121],[-87.72011426,42.02255557],[-87.72132595,42.02246584],[-87.72243652,42.02237021],[-87.72821117,42.02234543],[-87.74059519,42.02231694],[-87.74239927,42.02251514],[-87.74352146,42.02283645],[-87.74455278,42.02329694],[-87.74546246,42.02388287],[-87.74622338,42.02457678],[-87.74681283,42.02535795],[-87.74721137,42.02621445],[-87.74743228,42.02679583],[-87.74783044,42.02808484],[-87.74868943,42.03091969],[-87.74924562,42.03256269],[-87.74952652,42.0334694],[-87.75033175,42.03533724],[-87.75117808,42.03717778],[-87.75192443,42.03895857]]},"properties":{"route_id":"Y","route_name":"Yellow Line","route_color":"#F9E300","shape_id":309100137,"is_loop":false}},{"type":"Feature","geometry":{"type":"LineString","coordinates":[[-87.75192443,42.03895857],[-87.75117808,42.03717778],[-87.75033175,42.03533724],[-87.74952652,42.0334694],[-87.74924562,42.03256269],[-87.74868943,42.03091969],[-87.74783044,42.02808484],[-87.74743228,42.02679583],[-87.74721137,42.02621445],[-87.74681283,42.02535795],[-87.74622338,42.02457678],[-87.74546246,42.02388287],[-87.74455278,42.02329694],[-87.74352146,42.02283645],[-87.74239927,42.02251514],[-87.74059519,42.02231694],[-87.72821117,42.02234543],[-87.72243652,42.02237021],[-87.72132595,42.02246584],[-87.72011426,42.02255557],[-87.71852676,42.02263121],[-87.71790666,42.0226556],[-87.7153382,42.02266312],[-87.71382653,42.02266007],[-87.71133134,42.02257286],[-87.71022389,42.02255183],[-87.70832546,42.02251252],[-87.70660918,42.02252875],[-87.70182036,42.02263537],[-87.69978984,42.02247583],[-87.69750915,42.02223609],[-87.69580504,42.0222093],[-87.69333314,42.02226486],[-87.69161476,42.02211663],[-87.69049323,42.02195589],[-87.68923453,42.02180747],[-87.68746185,42.02170321],[-87.68484414,42.02171524],[-87.67916256,42.02169028],[-87.67783736,42.02153672],[-87.67733734,42.02144001],[-87.67660556,42.02126354],[-87.67556153,42.02081265],[-87.67449193,42.02021331],[-87.67289823,42.0190711]]},"properties":{"route_id":"Y","route_name":"Yellow Line","route_color":"#F9E300","shape_id":309100138,"is_loop":false}},{"type":"Feature","geometry":{"type":"LineString","coordinates":[[-87.81732358,41.87426515],[-87.81523993,41.87407851],[-87.8146878,41.87392091],[-87.81410686,41.87365978],[-87.81343096,41.87361027],[-87.8128662,41.87366163],[-87.81213268,41.87372619],[-87.81149508,41.87380597],[-87.81110602,41.87382755],[-87.80900822,41.87370122],[-87.80448915,41.87325668],[-87.79279595,41.87222031],[-87.78418874,41.8714584],[-87.77679106,41.87089424],[-87.77246311,41.87063601],[-87.76739498,41.87032068],[-87.76385052,41.8700463],[-87.76302074,41.87011288],[-87.76237645,41.87023929],[-87.76166797,41.87049262],[-87.7606044,41.8709657],[-87.75978829,41.87126562],[-87.75834273,41.87143984],[-87.75584517,41.87149565],[-87.74517796,41.8716159],[-87.74146335,41.87167458],[-87.73976645,41.87174594],[-87.7385189,41.87197985],[-87.7374565,41.87230662],[-87.73584143,41.87306881],[-87.73421888,41.87361414],[-87.73268466,41.87381586],[-87.72563071,41.87389657],[-87.71970237,41.87397581],[-87.71252843,41.87407157],[-87.70826178,41.87414033],[-87.70719804,41.87426179],[-87.70598407,41.87443336],[-87.70081923,41.87518457],[-87.69961005,41.87530416],[-87.69831197,41.87538751],[-87.6960229,41.87541701],[-87.69104051,41.87549953],[-87.68613464,41.87555298],[-87.67395164,41.87564328],[-87.66887019,41.87574243],[-87.664996,41.87581805],[-87.6593502,41.87588868],[-87.65821388,41.87590433],[-87.65697897,41.8758547],[-87.65376121,41.87560661],[-87.64964799,41.87552406],[-87.64098997,41.87554676],[-87.63172783,41.87557548],[-87.6294264,41.87567331],[-87.62922653,41.87598473],[-87.6292573,41.87685123],[-87.62930197,41.87820741],[-87.62934445,41.8795054],[-87.62940419,41.88135272],[-87.62944581,41.88317228],[-87.62947635,41.88552295],[-87.62958916,41.88568552],[-87.62975855,41.8857411],[-87.6301197,41.88574557],[-87.63204551,41.88574451],[-87.63606304,41.88572392],[-87.63970349,41.88573891],[-87.64001327,41.88584718],[-87.64120035,41.8867204],[-87.64335911,41.88830934],[-87.64572158,41.88997748],[-87.64859165,41.89184904],[-87.65193481,41.89398538],[-87.65485153,41.89585809],[-87.65672279,41.89706086],[-87.65987464,41.89910479],[-87.6625927,41.90083179],[-87.66524265,41.90252851],[-87.6682817,41.90441129],[-87.67064111,41.90538471],[-87.67572618,41.90860797],[-87.68099917,41.91204449],[-87.68522658,41.91477469],[-87.69113414,41.91847383],[-87.69823619,41.92278232],[-87.70395814,41.92627489],[-87.7050031,41.92710299],[-87.70594479,41.92796675],[-87.70735561,41.92900306],[-87.7116042,41.9316018],[-87.71206667,41.9319459],[-87.71220335,41.93242946],[-87.71236513,41.93813953],[-87.7124853,41.94046613],[-87.71300062,41.94110161],[-87.71394131,41.94156904],[-87.71473604,41.94196367],[-87.71562869,41.94256188],[-87.71636657,41.94322816],[-87.71680774,41.94380224],[-87.71750144,41.94499227],[-87.71814167,41.94610578],[-87.71868241,41.94694718],[-87.71910509,41.94736796],[-87.71972442,41.94784737],[-87.72043238,41.94821138],[-87.72122232,41.94854922],[-87.72240886,41.94910972],[-87.72548138,41.95085631],[-87.72918305,41.95294812],[-87.73447143,41.95595826],[-87.74074613,41.95941467],[-87.74215129,41.96029066],[-87.74300663,41.96098349],[-87.74362277,41.9614945],[-87.74433603,41.96202222],[-87.74502798,41.96243788],[-87.74577478,41.96279188],[-87.74699363,41.96318163],[-87.74837791,41.96363177],[-87.74925262,41.96396257],[-87.75000251,41.96433085],[-87.75218884,41.96574025],[-87.75396959,41.96683073],[-87.75586869,41.96790035],[-87.75857435,41.96944563],[-87.76013208,41.97031374],[-87.76149561,41.97088641],[-87.76320782,41.9713532],[-87.76472054,41.97176254],[-87.76572334,41.97217278],[-87.76797347,41.97339345],[-87.77368889,41.97664076],[-87.77838758,41.9792874],[-87.78175811,41.98120235],[-87.78364978,41.98212556],[-87.78516747,41.98245441],[-87.78651195,41.98250548],[-87.79065758,41.98246858],[-87.80107277,41.98239109],[-87.80719031,41.98234783],[-87.81112869,41.98229774],[-87.81355755,41.98235701],[-87.81528545,41.98266576],[-87.81773353,41.98326748],[-87.82075892,41.98375629],[-87.82405485,41.98417069],[-87.82834441,41.98451356],[-87.83276117,41.98454439],[-87.83679209,41.98434797],[-87.84186275,41.9841023],[-87.84568178,41.98398383],[-87.85238744,41.98377973],[-87.85939353,41.98351515],[-87.86633271,41.98330558],[-87.87093753,41.98321899],[-87.87237311,41.98316287],[-87.87364367,41.98298228],[-87.87463311,41.98267057],[-87.8787499,41.98098619],[-87.88747802,41.97737546],[-87.88840658,41.97710172],[-87.88902632,41.97703953],[-87.88993743,41.97709064],[-87.89095606,41.97736313],[-87.89170936,41.97779437],[-87.89562529,41.98119128],[-87.89601852,41.98147528],[-87.89713871,41.98174609],[-87.89916521,41.98181988],[-87.90097848,41.98079548],[-87.9017089,41.98003246],[-87.90422891,41.97767312]]},"properties":{"route_id":"Blue","route_name":"Blue Line","route_color":"#00A1DE","shape_id":309100001,"is_loop":false}},{"type":"Feature","geometry":{"type":"LineString","coordinates":[[-87.90422891,41.97767312],[-87.9017089,41.98003246],[-87.90097848,41.98079548],[-87.89916521,41.98181988],[-87.89713871,41.98174609],[-87.89601852,41.98147528],[-87.89562529,41.98119128],[-87.89170936,41.97779437],[-87.89095606,41.97736313],[-87.88993743,41.97709064],[-87.88902632,41.97703953],[-87.88840658,41.97710172],[-87.88747802,41.97737546],[-87.8787499,41.98098619],[-87.87463311,41.98267057],[-87.87364367,41.98298228],[-87.87237311,41.98316287],[-87.87093753,41.98321899],[-87.86633271,41.98330558],[-87.85939353,41.98351515],[-87.85238744,41.98377973],[-87.84568178,41.98398383],[-87.84186275,41.9841023],[-87.83679209,41.98434797],[-87.83276117,41.98454439],[-87.82834441,41.98451356],[-87.82405485,41.98417069],[-87.82075892,41.98375629],[-87.81773353,41.98326748],[-87.81528545,41.98266576],[-87.81355755,41.98235701],[-87.81112869,41.98229774],[-87.80719031,41.98234783],[-87.80107277,41.98239109],[-87.79065758,41.98246858],[-87.78651195,41.98250548],[-87.78516747,41.98245441],[-87.78364978,41.98212556],[-87.78175811,41.98120235],[-87.77838758,41.9792874],[-87.77368889,41.97664076],[-87.76797347,41.97339345],[-87.76572334,41.97217278],[-87.76472054,41.97176254],[-87.76320782,41.9713532],[-87.76149561,41.97088641],[-87.76013208,41.97031374],[-87.75857435,41.96944563],[-87.75586869,41.96790035],[-87.75396959,41.96683073],[-87.75218884,41.96574025],[-87.75000251,41.96433085],[-87.74925262,41.96396257],[-87.74837791,41.96363177],[-87.74699363,41.96318163],[-87.74577478,41.96279188],[-87.74502798,41.96243788],[-87.74433603,41.96202222],[-87.74362277,41.9614945],[-87.74300663,41.96098349],[-87.74215129,41.96029066],[-87.74074613,41.95941467],[-87.73447143,41.95595826],[-87.72918305,41.95294812],[-87.72548138,41.95085631],[-87.72240886,41.94910972],[-87.72122232,41.94854922],[-87.72043238,41.94821138],[-87.71972442,41.94784737],[-87.71910509,41.94736796],[-87.71868241,41.94694718],[-87.71814167,41.94610578],[-87.71750144,41.94499227],[-87.71680774,41.94380224],[-87.71636657,41.94322816],[-87.71562869,41.94256188],[-87.71473604,41.94196367],[-87.71394131,41.94156904],[-87.71300062,41.94110161],[-87.7124853,41.94046613],[-87.71236513,41.93813953],[-87.71220335,41.93242946],[-87.71206667,41.9319459],[-87.7116042,41.9316018],[-87.70735561,41.92900306],[-87.70594479,41.92796675],[-87.7050031,41.92710299],[-87.70395814,41.92627489],[-87.69823619,41.92278232],[-87.69113414,41.91847383],[-87.68522658,41.91477469],[-87.68099917,41.91204449],[-87.67572618,41.90860797],[-87.67064111,41.90538471],[-87.6682817,41.90441129],[-87.66524265,41.90252851],[-87.6625927,41.90083179],[-87.65987464,41.89910479],[-87.65672279,41.89706086],[-87.65485153,41.89585809],[-87.65193481,41.89398538],[-87.64859165,41.89184904],[-87.64572158,41.88997748],[-87.64335911,41.88830934],[-87.64120035,41.8867204],[-87.64001327,41.88584718],[-87.63970349,41.88573891],[-87.63606304,41.88572392],[-87.63204551,41.88574451],[-87.6301197,41.88574557],[-87.62975855,41.8857411],[-87.62958916,41.88568552],[-87.62947635,41.88552295],[-87.62944581,41.88317228],[-87.62940419,41.88135272],[-87.62934445,41.8795054],[-87.62930197,41.87820741],[-87.6292573,41.87685123],[-87.62922653,41.87598473],[-87.6294264,41.87567331],[-87.63172783,41.87557548],[-87.64098997,41.87554676],[-87.64964799,41.87552406],[-87.65376121,41.87560661],[-87.65697897,41.8758547],[-87.65821388,41.87590433],[-87.6593502,41.87588868],[-87.664996,41.87581805],[-87.66887019,41.87574243],[-87.67395164,41.87564328],[-87.68613464,41.87555298],[-87.69104051,41.87549953],[-87.6960229,41.87541701],[-87.69831197,41.87538751],[-87.69961005,41.87530416],[-87.70081923,41.87518457],[-87.70598407,41.87443336],[-87.70719804,41.87426179],[-87.70826178,41.87414033],[-87.71252843,41.87407157],[-87.71970237,41.87397581],[-87.72563071,41.87389657],[-87.73268466,41.87381586],[-87.73421888,41.87361414],[-87.73584143,41.87306881],[-87.7374565,41.87230662],[-87.7385189,41.87197985],[-87.73976645,41.87174594],[-87.74146335,41.87167458],[-87.74517796,41.8716159],[-87.75584517,41.87149565],[-87.75834273,41.87143984],[-87.75978829,41.87126562],[-87.7606044,41.8709657],[-87.76166797,41.87049262],[-87.76237645,41.87023929],[-87.76302074,41.87011288],[-87.76385052,41.8700463],[-87.76739498,41.87032068],[-87.77246311,41.87063601],[-87.77679106,41.87089424],[-87.78418874,41.8714584],[-87.79279595,41.87222031],[-87.80448915,41.87325668],[-87.80900822,41.87370122],[-87.81110602,41.87382755],[-87.81149508,41.87380597],[-87.81213268,41.87372619],[-87.8128662,41.87366163],[-87.81343096,41.87361027],[-87.81410686,41.87365978],[-87.8146878,41.87392091],[-87.81523993,41.87407851],[-87.81732358,41.87426515]]},"properties":{"route_id":"Blue","route_name":"Blue Line","route_color":"#00A1DE","shape_id":309100002,"is_loop":false}},{"type":"Feature","geometry":{"type":"LineString","coordinates":[[-87.85939353,41.98351515],[-87.85238744,41.98377973],[-87.84568178,41.98398383],[-87.84186275,41.9841023],[-87.83679209,41.98434797],[-87.83276117,41.98454439],[-87.82834441,41.98451356],[-87.82405485,41.98417069],[-87.82075892,41.98375629],[-87.81773353,41.98326748],[-87.81528545,41.98266576],[-87.81355755,41.98235701],[-87.81112869,41.98229774],[-87.80719031,41.98234783],[-87.80107277,41.98239109],[-87.79065758,41.98246858],[-87.78651195,41.98250548],[-87.78516747,41.98245441],[-87.78364978,41.98212556],[-87.78175811,41.98120235],[-87.77838758,41.9792874],[-87.77368889,41.97664076],[-87.76797347,41.97339345],[-87.76572334,41.97217278],[-87.76472054,41.97176254],[-87.76320782,41.9713532],[-87.76149561,41.97088641],[-87.76013208,41.97031374],[-87.75857435,41.96944563],[-87.75586869,41.96790035],[-87.75396959,41.96683073],[-87.75218884,41.96574025],[-87.75000251,41.96433085],[-87.74925262,41.96396257],[-87.74837791,41.96363177],[-87.74699363,41.96318163],[-87.74577478,41.96279188],[-87.74502798,41.96243788],[-87.74433603,41.96202222],[-87.74362277,41.9614945],[-87.74300663,41.96098349],[-87.74215129,41.96029066],[-87.74074613,41.95941467],[-87.73447143,41.95595826],[-87.72918305,41.95294812],[-87.72548138,41.95085631],[-87.72240886,41.94910972],[-87.72122232,41.94854922],[-87.72043238,41.94821138],[-87.71972442,41.94784737],[-87.71910509,41.94736796],[-87.71868241,41.94694718],[-87.71814167,41.94610578],[-87.71750144,41.94499227],[-87.71680774,41.94380224],[-87.71636657,41.94322816],[-87.71562869,41.94256188],[-87.71473604,41.94196367],[-87.71394131,41.94156904],[-87.71300062,41.94110161],[-87.7124853,41.94046613],[-87.71236513,41.93813953],[-87.71220335,41.93242946],[-87.71206667,41.9319459],[-87.7116042,41.9316018],[-87.70735561,41.92900306],[-87.70594479,41.92796675],[-87.7050031,41.92710299],[-87.70395814,41.92627489],[-87.69823619,41.92278232],[-87.69113414,41.91847383],[-87.68522658,41.91477469],[-87.68099917,41.91204449],[-87.67572618,41.90860797],[-87.67064111,41.90538471],[-87.6682817,41.90441129],[-87.66524265,41.90252851],[-87.6625927,41.90083179],[-87.65987464,41.89910479],[-87.65672279,41.89706086],[-87.65485153,41.89585809],[-87.65193481,41.89398538],[-87.64859165,41.89184904],[-87.64572158,41.88997748],[-87.64335911,41.88830934],[-87.64120035,41.8867204],[-87.64001327,41.88584718],[-87.63970349,41.88573891],[-87.63606304,41.88572392],[-87.63204551,41.88574451],[-87.6301197,41.88574557],[-87.62975855,41.8857411],[-87.62958916,41.88568552],[-87.62947635,41.88552295],[-87.62944581,41.88317228],[-87.62940419,41.88135272],[-87.62934445,41.8795054],[-87.62930197,41.87820741],[-87.6292573,41.87685123],[-87.62922653,41.87598473],[-87.6294264,41.87567331],[-87.63172783,41.87557548],[-87.64098997,41.87554676],[-87.64964799,41.87552406],[-87.65376121,41.87560661],[-87.65697897,41.8758547],[-87.65821388,41.87590433],[-87.6593502,41.87588868],[-87.664996,41.87581805],[-87.66887019,41.87574243],[-87.67395164,41.87564328],[-87.68613464,41.87555298],[-87.69104051,41.87549953],[-87.6960229,41.87541701],[-87.69831197,41.87538751],[-87.69961005,41.87530416],[-87.70081923,41.87518457],[-87.70598407,41.87443336],[-87.70719804,41.87426179],[-87.70826178,41.87414033],[-87.71252843,41.87407157],[-87.71970237,41.87397581],[-87.72563071,41.87389657],[-87.73268466,41.87381586],[-87.73421888,41.87361414],[-87.73584143,41.87306881],[-87.7374565,41.87230662],[-87.7385189,41.87197985],[-87.73976645,41.87174594],[-87.74146335,41.87167458],[-87.74517796,41.8716159],[-87.75584517,41.87149565],[-87.75834273,41.87143984],[-87.75978829,41.87126562],[-87.7606044,41.8709657],[-87.76166797,41.87049262],[-87.76237645,41.87023929],[-87.76302074,41.87011288],[-87.76385052,41.8700463],[-87.76739498,41.87032068],[-87.77246311,41.87063601],[-87.77679106,41.87089424],[-87.78418874,41.8714584],[-87.79279595,41.87222031],[-87.80448915,41.87325668],[-87.80900822,41.87370122],[-87.81110602,41.87382755],[-87.81149508,41.87380597],[-87.81213268,41.87372619],[-87.8128662,41.87366163],[-87.81343096,41.87361027],[-87.81410686,41.87365978],[-87.8146878,41.87392091],[-87.81523993,41.87407851],[-87.81732358,41.87426515]]},"properties":{"route_id":"Blue","route_name":"Blue Line","route_color":"#00A1DE","shape_id":309100005,"is_loop":false}},{"type":"Feature","geometry":{"type":"LineString","coordinates":[[-87.76089808,41.970642],[-87.75970411,41.97008417],[-87.75738914,41.9687709],[-87.7553129,41.96759026],[-87.75332818,41.96646065],[-87.7516368,41.96537299],[-87.74975795,41.96419859],[-87.74892191,41.96382749],[-87.74802788,41.96351564],[-87.74656069,41.96305793],[-87.74546951,41.96266883],[-87.74477391,41.9623008],[-87.74410135,41.96185904],[-87.74343499,41.9613382],[-87.74275012,41.9607654],[-87.74169852,41.96000609],[-87.73725054,41.95743461],[-87.73273515,41.95495822],[-87.72798429,41.95227581],[-87.72357369,41.94975732],[-87.72181384,41.94881652],[-87.72098843,41.94845265],[-87.72012538,41.94806303],[-87.71950221,41.94768724],[-87.71891603,41.94720809],[-87.71850639,41.94666991],[-87.71789992,41.94569475],[-87.71727256,41.94457179],[-87.71665351,41.94358226],[-87.71617408,41.94300559],[-87.71529965,41.94231265],[-87.71452879,41.94186183],[-87.71361668,41.94143345],[-87.71279055,41.94091796],[-87.71242318,41.94014945],[-87.71231403,41.93677317],[-87.71217412,41.93224167],[-87.71192991,41.93182846],[-87.71032622,41.93083804],[-87.70692771,41.92869955],[-87.70555702,41.92761283],[-87.70471027,41.92683903],[-87.70203337,41.92506742],[-87.69689557,41.92194703],[-87.68897334,41.91715589],[-87.68382437,41.91386992],[-87.6792833,41.91092547],[-87.67363365,41.90726644],[-87.67014862,41.90514585],[-87.66650183,41.90336294],[-87.66417589,41.90185029],[-87.66162808,41.90022812],[-87.65879139,41.89840287],[-87.65580256,41.89645185],[-87.65380607,41.89520976],[-87.65044892,41.89303195],[-87.64758407,41.89119715],[-87.64506188,41.88952613],[-87.64266072,41.88779433],[-87.6408602,41.88647019],[-87.63994335,41.88579883],[-87.63944895,41.88571048],[-87.63391893,41.88573238],[-87.63089177,41.88574484],[-87.6299274,41.88574601],[-87.62971012,41.8857308],[-87.62953044,41.88564091],[-87.62947315,41.88547283],[-87.62942952,41.88213577],[-87.62938523,41.88076642],[-87.62932951,41.87904338],[-87.62930141,41.87819037],[-87.62924593,41.87650614],[-87.62923243,41.87586904],[-87.62955375,41.87563649],[-87.63363132,41.87557648],[-87.6419136,41.87552047],[-87.650404,41.87548496],[-87.6558483,41.87578711],[-87.65739138,41.87588398],[-87.6586389,41.87590319],[-87.65946127,41.87589349],[-87.66658707,41.87577994],[-87.67275937,41.87566263],[-87.67645717,41.87561714],[-87.68703354,41.87554613],[-87.69148324,41.87547949],[-87.69673547,41.87540365],[-87.69878393,41.87536391],[-87.70000879,41.87527062],[-87.70147354,41.87509288],[-87.70619632,41.87440398],[-87.70752639,41.87421645],[-87.70945396,41.8741044],[-87.71422183,41.87404537],[-87.72422422,41.87392447],[-87.72707174,41.87388298],[-87.73318946,41.87378079],[-87.73470567,41.87348236],[-87.73624048,41.87287765],[-87.73787728,41.87215091],[-87.73880326,41.87191534],[-87.74018611,41.87171041],[-87.74381254,41.87164189],[-87.74999284,41.87156505],[-87.7567501,41.87148841],[-87.75891988,41.87141916],[-87.76011413,41.87114235],[-87.76091769,41.87083529],[-87.76188951,41.87039711],[-87.7625344,41.87020472],[-87.76329849,41.87007891],[-87.76432652,41.87005337],[-87.76825513,41.87038383],[-87.77395952,41.87072777],[-87.77826813,41.87098605],[-87.78724271,41.87173176],[-87.79636024,41.87251469],[-87.80569287,41.87337101],[-87.8104523,41.87384711],[-87.81125342,41.87382218],[-87.81181749,41.87376329],[-87.81241848,41.87368948],[-87.81302734,41.87363754],[-87.81371001,41.87358934],[-87.81430378,41.8737493],[-87.81484537,41.8739881],[-87.81556579,41.87410952]]},"properties":{"route_id":"Blue","route_name":"Blue Line","route_color":"#00A1DE","shape_id":309100040,"is_loop":false}},{"type":"Feature","geometry":{"type":"LineString","coordinates":[[-87.64964799,41.87552406],[-87.64098997,41.87554676],[-87.63172783,41.87557548],[-87.6294264,41.87567331],[-87.62922653,41.87598473],[-87.6292573,41.87685123],[-87.62930197,41.87820741],[-87.62934445,41.8795054],[-87.62940419,41.88135272],[-87.62944581,41.88317228],[-87.62947635,41.88552295],[-87.62958916,41.88568552],[-87.62975855,41.8857411],[-87.6301197,41.88574557],[-87.63204551,41.88574451],[-87.63606304,41.88572392],[-87.63970349,41.88573891],[-87.64001327,41.88584718],[-87.64120035,41.8867204],[-87.64335911,41.88830934],[-87.64572158,41.88997748],[-87.64859165,41.89184904],[-87.65193481,41.89398538],[-87.65485153,41.89585809],[-87.65672279,41.89706086],[-87.65987464,41.89910479],[-87.6625927,41.90083179],[-87.66524265,41.90252851],[-87.6682817,41.90441129],[-87.67064111,41.90538471],[-87.67572618,41.90860797],[-87.68099917,41.91204449],[-87.68522658,41.91477469],[-87.69113414,41.91847383],[-87.69823619,41.92278232],[-87.70395814,41.92627489],[-87.7050031,41.92710299],[-87.70594479,41.92796675],[-87.70735561,41.92900306],[-87.7116042,41.9316018],[-87.71206667,41.9319459],[-87.71220335,41.93242946],[-87.71236513,41.93813953],[-87.7124853,41.94046613],[-87.71300062,41.94110161],[-87.71394131,41.94156904],[-87.71473604,41.94196367],[-87.71562869,41.94256188],[-87.71636657,41.94322816],[-87.71680774,41.94380224],[-87.71750144,41.94499227],[-87.71814167,41.94610578],[-87.71868241,41.94694718],[-87.71910509,41.94736796],[-87.71972442,41.94784737],[-87.72043238,41.94821138],[-87.72122232,41.94854922],[-87.72240886,41.94910972],[-87.72548138,41.95085631],[-87.72918305,41.95294812],[-87.73447143,41.95595826],[-87.74074613,41.95941467],[-87.74215129,41.96029066],[-87.74300663,41.96098349],[-87.74362277,41.9614945],[-87.74433603,41.96202222],[-87.74502798,41.96243788],[-87.74577478,41.96279188],[-87.74699363,41.96318163],[-87.74837791,41.96363177],[-87.74925262,41.96396257],[-87.75000251,41.96433085],[-87.75218884,41.96574025],[-87.75396959,41.96683073],[-87.75586869,41.96790035],[-87.75857435,41.96944563],[-87.76013208,41.97031374],[-87.76149561,41.97088641],[-87.76320782,41.9713532],[-87.76472054,41.97176254],[-87.76572334,41.97217278],[-87.76797347,41.97339345],[-87.77368889,41.97664076],[-87.77838758,41.9792874],[-87.78175811,41.98120235],[-87.78364978,41.98212556],[-87.78516747,41.98245441],[-87.78651195,41.98250548],[-87.79065758,41.98246858],[-87.80107277,41.98239109],[-87.80719031,41.98234783],[-87.81112869,41.98229774],[-87.81355755,41.98235701],[-87.81528545,41.98266576],[-87.81773353,41.98326748],[-87.82075892,41.98375629],[-87.82405485,41.98417069],[-87.82834441,41.98451356],[-87.83276117,41.98454439],[-87.83679209,41.98434797],[-87.84186275,41.9841023],[-87.84568178,41.98398383],[-87.85238744,41.98377973],[-87.85939353,41.98351515],[-87.86633271,41.98330558],[-87.87093753,41.98321899],[-87.87237311,41.98316287],[-87.87364367,41.98298228],[-87.87463311,41.98267057],[-87.8787499,41.98098619],[-87.88747802,41.97737546],[-87.88840658,41.97710172],[-87.88902632,41.97703953],[-87.88993743,41.97709064],[-87.89095606,41.97736313],[-87.89170936,41.97779437],[-87.89562529,41.98119128],[-87.89601852,41.98147528],[-87.89713871,41.98174609],[-87.89916521,41.98181988],[-87.90097848,41.98079548],[-87.9017089,41.98003246],[-87.90422891,41.97767312]]},"properties":{"route_id":"Blue","route_name":"Blue Line","route_color":"#00A1DE","shape_id":309100053,"is_loop":false}},{"type":"Feature","geometry":{"type":"LineString","coordinates":[[-87.90422891,41.97767312],[-87.9017089,41.98003246],[-87.90097848,41.98079548],[-87.89916521,41.98181988],[-87.89713871,41.98174609],[-87.89601852,41.98147528],[-87.89562529,41.98119128],[-87.89170936,41.97779437],[-87.89095606,41.97736313],[-87.88993743,41.97709064],[-87.88902632,41.97703953],[-87.88840658,41.97710172],[-87.88747802,41.97737546],[-87.8787499,41.98098619],[-87.87463311,41.98267057],[-87.87364367,41.98298228],[-87.87237311,41.98316287],[-87.87093753,41.98321899],[-87.86633271,41.98330558],[-87.85939353,41.98351515],[-87.85238744,41.98377973],[-87.84568178,41.98398383],[-87.84186275,41.9841023],[-87.83679209,41.98434797],[-87.83276117,41.98454439],[-87.82834441,41.98451356],[-87.82405485,41.98417069],[-87.82075892,41.98375629],[-87.81773353,41.98326748],[-87.81528545,41.98266576],[-87.81355755,41.98235701],[-87.81112869,41.98229774],[-87.80719031,41.98234783],[-87.80107277,41.98239109],[-87.79065758,41.98246858],[-87.78651195,41.98250548],[-87.78516747,41.98245441],[-87.78364978,41.98212556],[-87.78175811,41.98120235],[-87.77838758,41.9792874],[-87.77368889,41.97664076],[-87.76797347,41.97339345],[-87.76572334,41.97217278],[-87.76472054,41.97176254],[-87.76320782,41.9713532],[-87.76149561,41.97088641],[-87.76013208,41.97031374],[-87.75857435,41.96944563],[-87.75586869,41.96790035],[-87.75396959,41.96683073],[-87.75218884,41.96574025],[-87.75000251,41.96433085],[-87.74925262,41.96396257],[-87.74837791,41.96363177],[-87.74699363,41.96318163],[-87.74577478,41.96279188],[-87.74502798,41.96243788],[-87.74433603,41.96202222],[-87.74362277,41.9614945],[-87.74300663,41.96098349],[-87.74215129,41.96029066],[-87.74074613,41.95941467],[-87.73447143,41.95595826],[-87.72918305,41.95294812],[-87.72548138,41.95085631],[-87.72240886,41.94910972],[-87.72122232,41.94854922],[-87.72043238,41.94821138],[-87.71972442,41.94784737],[-87.71910509,41.94736796],[-87.71868241,41.94694718],[-87.71814167,41.94610578],[-87.71750144,41.94499227],[-87.71680774,41.94380224],[-87.71636657,41.94322816],[-87.71562869,41.94256188],[-87.71473604,41.94196367],[-87.71394131,41.94156904],[-87.71300062,41.94110161],[-87.7124853,41.94046613],[-87.71236513,41.93813953],[-87.71220335,41.93242946],[-87.71206667,41.9319459],[-87.7116042,41.9316018],[-87.70735561,41.92900306],[-87.70594479,41.92796675],[-87.7050031,41.92710299],[-87.70395814,41.92627489],[-87.69823619,41.92278232],[-87.69113414,41.91847383],[-87.68522658,41.91477469],[-87.68099917,41.91204449],[-87.67572618,41.90860797],[-87.67064111,41.90538471],[-87.6682817,41.90441129],[-87.66524265,41.90252851],[-87.6625927,41.90083179],[-87.65987464,41.89910479],[-87.65672279,41.89706086],[-87.65485153,41.89585809],[-87.65193481,41.89398538],[-87.64859165,41.89184904],[-87.64572158,41.88997748],[-87.64335911,41.88830934],[-87.64120035,41.8867204],[-87.64001327,41.88584718],[-87.63970349,41.88573891],[-87.63606304,41.88572392],[-87.63204551,41.88574451],[-87.6301197,41.88574557],[-87.62975855,41.8857411],[-87.62958916,41.88568552],[-87.62947635,41.88552295],[-87.62944581,41.88317228],[-87.62940419,41.88135272],[-87.62934445,41.8795054],[-87.62930197,41.87820741],[-87.6292573,41.87685123],[-87.62922653,41.87598473],[-87.6294264,41.87567331],[-87.63172783,41.87557548],[-87.64098997,41.87554676],[-87.64964799,41.87552406]]},"properties":{"route_id":"Blue","route_name":"Blue Line","route_color":"#00A1DE","shape_id":309100074,"is_loop":false}},{"type":"Feature","geometry":{"type":"LineString","coordinates":[[-87.64964799,41.87552406],[-87.64098997,41.87554676],[-87.63172783,41.87557548],[-87.6294264,41.87567331],[-87.62922653,41.87598473],[-87.6292573,41.87685123],[-87.62930197,41.87820741],[-87.62934445,41.8795054],[-87.62940419,41.88135272],[-87.62944581,41.88317228],[-87.62947635,41.88552295],[-87.62958916,41.88568552],[-87.62975855,41.8857411],[-87.6301197,41.88574557],[-87.63204551,41.88574451],[-87.63606304,41.88572392],[-87.63970349,41.88573891],[-87.64001327,41.88584718],[-87.64120035,41.8867204],[-87.64335911,41.88830934],[-87.64572158,41.88997748],[-87.64859165,41.89184904],[-87.65193481,41.89398538],[-87.65485153,41.89585809],[-87.65672279,41.89706086],[-87.65987464,41.89910479],[-87.6625927,41.90083179],[-87.66524265,41.90252851],[-87.6682817,41.90441129],[-87.67064111,41.90538471],[-87.67572618,41.90860797],[-87.68099917,41.91204449],[-87.68522658,41.91477469],[-87.69113414,41.91847383],[-87.69823619,41.92278232],[-87.70395814,41.92627489],[-87.7050031,41.92710299],[-87.70594479,41.92796675],[-87.70735561,41.92900306],[-87.7116042,41.9316018],[-87.71206667,41.9319459],[-87.71220335,41.93242946],[-87.71236513,41.93813953],[-87.7124853,41.94046613],[-87.71300062,41.94110161],[-87.71394131,41.94156904],[-87.71473604,41.94196367],[-87.71562869,41.94256188],[-87.71636657,41.94322816],[-87.71680774,41.94380224],[-87.71750144,41.94499227],[-87.71814167,41.94610578],[-87.71868241,41.94694718],[-87.71910509,41.94736796],[-87.71972442,41.94784737],[-87.72043238,41.94821138],[-87.72122232,41.94854922],[-87.72240886,41.94910972],[-87.72548138,41.95085631],[-87.72918305,41.95294812],[-87.73447143,41.95595826],[-87.74074613,41.95941467],[-87.74215129,41.96029066],[-87.74300663,41.96098349],[-87.74362277,41.9614945],[-87.74433603,41.96202222],[-87.74502798,41.96243788],[-87.74577478,41.96279188],[-87.74699363,41.96318163],[-87.74837791,41.96363177],[-87.74925262,41.96396257],[-87.75000251,41.96433085],[-87.75218884,41.96574025],[-87.75396959,41.96683073],[-87.75586869,41.96790035],[-87.75857435,41.96944563],[-87.76013208,41.97031374]]},"properties":{"route_id":"Blue","route_name":"Blue Line","route_color":"#00A1DE","shape_id":309100084,"is_loop":false}},{"type":"Feature","geometry":{"type":"LineString","coordinates":[[-87.65946127,41.87589349],[-87.6586389,41.87590319],[-87.65739138,41.87588398],[-87.6558483,41.87578711],[-87.650404,41.87548496],[-87.6419136,41.87552047],[-87.63363132,41.87557648],[-87.62955375,41.87563649],[-87.62923243,41.87586904],[-87.62924593,41.87650614],[-87.62930141,41.87819037],[-87.62932951,41.87904338],[-87.62938523,41.88076642],[-87.62942952,41.88213577],[-87.62947315,41.88547283],[-87.62953044,41.88564091],[-87.62971012,41.8857308],[-87.6299274,41.88574601],[-87.63089177,41.88574484],[-87.63391893,41.88573238],[-87.63944895,41.88571048],[-87.63994335,41.88579883],[-87.6408602,41.88647019],[-87.64266072,41.88779433],[-87.64506188,41.88952613],[-87.64758407,41.89119715],[-87.65044892,41.89303195],[-87.65380607,41.89520976],[-87.65580256,41.89645185],[-87.65879139,41.89840287],[-87.66162808,41.90022812],[-87.66417589,41.90185029],[-87.66650183,41.90336294],[-87.67014862,41.90514585],[-87.67363365,41.90726644],[-87.6792833,41.91092547],[-87.68382437,41.91386992],[-87.68897334,41.91715589],[-87.69689557,41.92194703],[-87.70203337,41.92506742],[-87.70471027,41.92683903],[-87.70555702,41.92761283],[-87.70692771,41.92869955],[-87.71032622,41.93083804],[-87.71192991,41.93182846],[-87.71217412,41.93224167],[-87.71231403,41.93677317],[-87.71242318,41.94014945],[-87.71279055,41.94091796],[-87.71361668,41.94143345],[-87.71452879,41.94186183],[-87.71529965,41.94231265],[-87.71617408,41.94300559],[-87.71665351,41.94358226],[-87.71727256,41.94457179],[-87.71789992,41.94569475],[-87.71850639,41.94666991],[-87.71891603,41.94720809],[-87.71950221,41.94768724],[-87.72012538,41.94806303],[-87.72098843,41.94845265],[-87.72181384,41.94881652],[-87.72357369,41.94975732],[-87.72798429,41.95227581],[-87.73273515,41.95495822],[-87.73725054,41.95743461],[-87.74169852,41.96000609],[-87.74275012,41.9607654],[-87.74343499,41.9613382],[-87.74410135,41.96185904],[-87.74477391,41.9623008],[-87.74546951,41.96266883],[-87.74656069,41.96305793],[-87.74802788,41.96351564],[-87.74892191,41.96382749],[-87.74975795,41.96419859],[-87.7516368,41.96537299],[-87.75332818,41.96646065],[-87.7553129,41.96759026],[-87.75738914,41.9687709],[-87.75970411,41.97008417],[-87.76089808,41.970642]]},"properties":{"route_id":"Blue","route_name":"Blue Line","route_color":"#00A1DE","shape_id":309100128,"is_loop":false}},{"type":"Feature","geometry":{"type":"LineString","coordinates":[[-87.76089808,41.970642],[-87.75970411,41.97008417],[-87.75738914,41.9687709],[-87.7553129,41.96759026],[-87.75332818,41.96646065],[-87.7516368,41.96537299],[-87.74975795,41.96419859],[-87.74892191,41.96382749],[-87.74802788,41.96351564],[-87.74656069,41.96305793],[-87.74546951,41.96266883],[-87.74477391,41.9623008],[-87.74410135,41.96185904],[-87.74343499,41.9613382],[-87.74275012,41.9607654],[-87.74169852,41.96000609],[-87.73725054,41.95743461],[-87.73273515,41.95495822],[-87.72798429,41.95227581],[-87.72357369,41.94975732],[-87.72181384,41.94881652],[-87.72098843,41.94845265],[-87.72012538,41.94806303],[-87.71950221,41.94768724],[-87.71891603,41.94720809],[-87.71850639,41.94666991],[-87.71789992,41.94569475],[-87.71727256,41.94457179],[-87.71665351,41.94358226],[-87.71617408,41.94300559],[-87.71529965,41.94231265],[-87.71452879,41.94186183],[-87.71361668,41.94143345],[-87.71279055,41.94091796],[-87.71242318,41.94014945],[-87.71231403,41.93677317],[-87.71217412,41.93224167],[-87.71192991,41.93182846],[-87.71032622,41.93083804],[-87.70692771,41.92869955],[-87.70555702,41.92761283],[-87.70471027,41.92683903],[-87.70203337,41.92506742],[-87.69689557,41.92194703],[-87.68897334,41.91715589],[-87.68382437,41.91386992],[-87.6792833,41.91092547],[-87.67363365,41.90726644],[-87.67014862,41.90514585],[-87.66650183,41.90336294],[-87.66417589,41.90185029],[-87.66162808,41.90022812],[-87.65879139,41.89840287],[-87.65580256,41.89645185],[-87.65380607,41.89520976],[-87.65044892,41.89303195],[-87.64758407,41.89119715],[-87.64506188,41.88952613],[-87.64266072,41.88779433],[-87.6408602,41.88647019],[-87.63994335,41.88579883],[-87.63944895,41.88571048],[-87.63391893,41.88573238],[-87.63089177,41.88574484],[-87.6299274,41.88574601],[-87.62971012,41.8857308],[-87.62953044,41.88564091],[-87.62947315,41.88547283],[-87.62942952,41.88213577],[-87.62938523,41.88076642],[-87.62932951,41.87904338],[-87.62930141,41.87819037],[-87.62924593,41.87650614],[-87.62923243,41.87586904],[-87.62955375,41.87563649],[-87.63363132,41.87557648],[-87.6419136,41.87552047],[-87.650404,41.87548496],[-87.6558483,41.87578711],[-87.65739138,41.87588398],[-87.6586389,41.87590319],[-87.65946127,41.87589349]]},"properties":{"route_id":"Blue","route_name":"Blue Line","route_color":"#00A1DE","shape_id":309100129,"is_loop":false}},{"type":"Feature","geometry":{"type":"LineString","coordinates":[[-87.7566978,41.85178115],[-87.74534779,41.85193256],[-87.73903945,41.85203803],[-87.73761486,41.85207711],[-87.73717706,41.8522114],[-87.73659522,41.85260393],[-87.73580538,41.85341661],[-87.7353907,41.85362064],[-87.73496613,41.85372312],[-87.73326944,41.85375853],[-87.7259387,41.85388298],[-87.72014631,41.8539201],[-87.7097761,41.85405418],[-87.70231793,41.85418498],[-87.69482868,41.85428748],[-87.68322304,41.85443621],[-87.67597986,41.85452271],[-87.6699607,41.854607],[-87.66975894,41.85463552],[-87.66957592,41.85469933],[-87.66937026,41.85482018],[-87.66919636,41.85499729],[-87.66912238,41.85518267],[-87.66916589,41.85791556],[-87.66929872,41.86280186],[-87.66946024,41.86808657],[-87.66954899,41.87157086],[-87.6697176,41.87575424],[-87.66976619,41.87776901],[-87.66979359,41.87791111],[-87.66986461,41.87805587],[-87.6700436,41.87837252],[-87.67006345,41.87893419],[-87.67014056,41.88307225],[-87.67014384,41.88439644],[-87.67011876,41.8848114],[-87.66990031,41.8850717],[-87.66943443,41.8852505],[-87.66414906,41.88538525],[-87.65835201,41.88549092],[-87.65311527,41.88556809],[-87.65088562,41.88561188],[-87.64736091,41.88567167],[-87.64394707,41.88571471],[-87.63884382,41.88571289],[-87.63391893,41.88573238],[-87.63089177,41.88574484],[-87.6299274,41.88574601],[-87.62887754,41.88574844],[-87.62661795,41.88574631],[-87.62642642,41.88573037],[-87.62627344,41.88562562],[-87.62626248,41.88535057],[-87.62616192,41.88203875],[-87.62603967,41.87697364],[-87.62757293,41.87693997],[-87.63173959,41.87686319],[-87.63345438,41.87686651],[-87.63365097,41.87696061],[-87.63374573,41.87873114],[-87.63385928,41.88270287],[-87.63515744,41.8857275],[-87.64177706,41.88571128],[-87.64506698,41.88570219],[-87.64851177,41.88565354],[-87.6518795,41.88558893],[-87.6555924,41.88554267],[-87.66148521,41.88544128],[-87.66516961,41.88535898],[-87.6696402,41.88520553],[-87.6700175,41.88495044],[-87.67013706,41.88469469],[-87.67012575,41.88400138],[-87.67019283,41.88275487],[-87.67006207,41.87858243],[-87.67000562,41.87827232],[-87.66983241,41.87800485],[-87.66978115,41.87787364],[-87.66976006,41.87755461],[-87.6697069,41.87543436],[-87.66950223,41.86973504],[-87.66942609,41.86674572],[-87.66925006,41.86103639],[-87.66910318,41.85533318],[-87.66914816,41.85510543],[-87.66923962,41.85493817],[-87.66948133,41.85474496],[-87.6696468,41.85467115],[-87.66981639,41.85462595],[-87.67357882,41.85456517],[-87.68235045,41.85445022],[-87.68518499,41.85440468],[-87.69830877,41.85425553],[-87.70426179,41.85415595],[-87.71488604,41.8539998],[-87.72303918,41.85387508],[-87.72736544,41.85387443],[-87.73461017,41.85374174],[-87.73510016,41.85370059],[-87.735558,41.85354932],[-87.73591605,41.85333679],[-87.73681835,41.852416],[-87.73736811,41.85214372],[-87.73777038,41.85205647],[-87.73988073,41.85202452],[-87.74921622,41.85188755]]},"properties":{"route_id":"Pink","route_name":"Pink Line","route_color":"#E27EA6","shape_id":309100035,"is_loop":false}},{"type":"Feature","geometry":{"type":"LineString","coordinates":[[-87.6638506,41.77896124],[-87.65263001,41.7791374],[-87.64603903,41.77915952],[-87.64494537,41.77903024],[-87.6373054,41.77912666],[-87.6341827,41.77926769],[-87.63337955,41.77935046],[-87.63246194,41.77999577],[-87.6320568,41.78036367],[-87.63200614,41.7807461],[-87.63205697,41.78330369],[-87.63204069,41.78614169],[-87.63190587,41.78642139],[-87.6317019,41.78659766],[-87.63121692,41.78676345],[-87.62941827,41.78682696],[-87.62470588,41.78690099],[-87.62065558,41.78694606],[-87.61843774,41.78704844],[-87.61818314,41.78729669],[-87.61814607,41.78931491],[-87.61832985,41.79518449],[-87.61845538,41.79933295],[-87.6185865,41.80393238],[-87.61864276,41.80621853],[-87.61877344,41.80675547],[-87.61892612,41.8127083],[-87.61909795,41.81869685],[-87.61916731,41.82133912],[-87.61936093,41.82168336],[-87.61975417,41.8218335],[-87.62354433,41.82179862],[-87.62505413,41.82177458],[-87.6254793,41.82191775],[-87.62564141,41.82215546],[-87.6257886,41.82785666],[-87.62640813,41.85312293],[-87.62647044,41.85646906],[-87.62642374,41.85876656],[-87.62656904,41.86574092],[-87.6267984,41.87361926],[-87.62680514,41.87400568],[-87.62668608,41.87432967],[-87.62640695,41.87470611],[-87.62616722,41.87500058],[-87.62600343,41.87539006],[-87.62605954,41.87831481],[-87.62619456,41.88322886],[-87.62626051,41.88552922],[-87.62630802,41.88566611],[-87.62650898,41.88574084],[-87.62683561,41.88574666],[-87.62948396,41.88574704],[-87.6301197,41.88574557],[-87.63204551,41.88574451],[-87.63515744,41.8857275],[-87.64177706,41.88571128],[-87.64506698,41.88570219],[-87.64851177,41.88565354],[-87.6518795,41.88558893],[-87.6555924,41.88554267],[-87.66148521,41.88544128],[-87.66516961,41.88535898],[-87.67082431,41.88521191],[-87.67430258,41.88506411],[-87.67689149,41.88497405],[-87.69880405,41.88412007],[-87.7006312,41.88404668],[-87.7013179,41.8840293],[-87.70418898,41.88421194],[-87.70612217,41.88432664],[-87.70745459,41.88440566],[-87.71106896,41.88460677],[-87.71414814,41.88477292],[-87.71601626,41.88488218],[-87.7199625,41.88511354],[-87.72242707,41.88525216],[-87.72540955,41.88541983],[-87.72674416,41.8854962],[-87.73113851,41.88574807],[-87.73380511,41.88590083],[-87.73806143,41.88614006],[-87.74296607,41.88642389],[-87.74547289,41.88660197],[-87.7503563,41.88690461],[-87.75499228,41.88717107],[-87.75615257,41.88731],[-87.75701857,41.88745322],[-87.75781566,41.88750929],[-87.76260178,41.88744638],[-87.7656553,41.88739686],[-87.76803848,41.88736912],[-87.77190279,41.88734179],[-87.77511675,41.88729959],[-87.77857091,41.88724111],[-87.78248176,41.88720207],[-87.78619928,41.88713305],[-87.78956829,41.88706804],[-87.79378915,41.88699537],[-87.79644441,41.88695315],[-87.79863742,41.88692755],[-87.80135887,41.88688863]]},"properties":{"route_id":"G","route_name":"Green Line","route_color":"#009B3A","shape_id":309100009,"is_loop":false}},{"type":"Feature","geometry":{"type":"LineString","coordinates":[[-87.60586315,41.78031661],[-87.61555162,41.78013756],[-87.61769175,41.78007877],[-87.61794463,41.78036429],[-87.61801988,41.78477406],[-87.61814607,41.78931491],[-87.61832985,41.79518449],[-87.61845538,41.79933295],[-87.6185865,41.80393238],[-87.61864276,41.80621853],[-87.61877344,41.80675547],[-87.61892612,41.8127083],[-87.61909795,41.81869685],[-87.61916731,41.82133912],[-87.61936093,41.82168336],[-87.61975417,41.8218335],[-87.62354433,41.82179862],[-87.62505413,41.82177458],[-87.6254793,41.82191775],[-87.62564141,41.82215546],[-87.6257886,41.82785666],[-87.62640813,41.85312293],[-87.62647044,41.85646906],[-87.62642374,41.85876656],[-87.62656904,41.86574092],[-87.6267984,41.87361926],[-87.62680514,41.87400568],[-87.62668608,41.87432967],[-87.62640695,41.87470611],[-87.62616722,41.87500058],[-87.62600343,41.87539006],[-87.62605954,41.87831481],[-87.62619456,41.88322886],[-87.62626051,41.88552922],[-87.62630802,41.88566611],[-87.62650898,41.88574084],[-87.62683561,41.88574666],[-87.62948396,41.88574704],[-87.6301197,41.88574557],[-87.63204551,41.88574451],[-87.63515744,41.8857275],[-87.64177706,41.88571128],[-87.64506698,41.88570219],[-87.64851177,41.88565354],[-87.6518795,41.88558893],[-87.6555924,41.88554267],[-87.66148521,41.88544128],[-87.66516961,41.88535898],[-87.67082431,41.88521191],[-87.67430258,41.88506411],[-87.67689149,41.88497405],[-87.69880405,41.88412007],[-87.7006312,41.88404668],[-87.7013179,41.8840293],[-87.70418898,41.88421194],[-87.70612217,41.88432664],[-87.70745459,41.88440566],[-87.71106896,41.88460677],[-87.71414814,41.88477292],[-87.71601626,41.88488218],[-87.7199625,41.88511354],[-87.72242707,41.88525216],[-87.72540955,41.88541983],[-87.72674416,41.8854962],[-87.73113851,41.88574807],[-87.73380511,41.88590083],[-87.73806143,41.88614006],[-87.74296607,41.88642389],[-87.74547289,41.88660197],[-87.7503563,41.88690461],[-87.75499228,41.88717107],[-87.75615257,41.88731],[-87.75701857,41.88745322],[-87.75781566,41.88750929],[-87.76260178,41.88744638],[-87.7656553,41.88739686],[-87.76803848,41.88736912],[-87.77190279,41.88734179],[-87.77511675,41.88729959],[-87.77857091,41.88724111],[-87.78248176,41.88720207],[-87.78619928,41.88713305],[-87.78956829,41.88706804],[-87.79378915,41.88699537],[-87.79644441,41.88695315],[-87.79863742,41.88692755],[-87.80135887,41.88688863]]},"properties":{"route_id":"G","route_name":"Green Line","route_color":"#009B3A","shape_id":309100010,"is_loop":false}},{"type":"Feature","geometry":{"type":"LineString","coordinates":[[-87.80318179,41.88685615],[-87.80072087,41.88690224],[-87.79795577,41.88693198],[-87.79557617,41.8869653],[-87.79246481,41.88701807],[-87.78860798,41.88708085],[-87.78451874,41.88715396],[-87.78101034,41.88721815],[-87.77737819,41.88726427],[-87.77414105,41.88730063],[-87.77002092,41.8873615],[-87.76741882,41.88738921],[-87.76513729,41.8873946],[-87.76078053,41.88744799],[-87.75756792,41.88750227],[-87.75677879,41.88742308],[-87.75574275,41.88724429],[-87.75327428,41.88705247],[-87.74870789,41.88679786],[-87.74470418,41.8865272],[-87.74130359,41.88632504],[-87.73559126,41.88600124],[-87.7331197,41.88586158],[-87.72994971,41.88567995],[-87.72625164,41.88546796],[-87.72462251,41.88537559],[-87.72156234,41.88520353],[-87.71680485,41.88492843],[-87.71530371,41.88484039],[-87.71268513,41.88469398],[-87.70935341,41.88451416],[-87.70669071,41.88436036],[-87.70567887,41.88430034],[-87.70371929,41.88418207],[-87.70129586,41.88403023],[-87.70023764,41.88406564],[-87.69787469,41.88413807],[-87.67665736,41.88498502],[-87.67308642,41.88510921],[-87.66943443,41.8852505],[-87.66414906,41.88538525],[-87.65835201,41.88549092],[-87.65311527,41.88556809],[-87.65088562,41.88561188],[-87.64736091,41.88567167],[-87.64394707,41.88571471],[-87.63884382,41.88571289],[-87.63391893,41.88573238],[-87.63089177,41.88574484],[-87.6299274,41.88574601],[-87.62887754,41.88574844],[-87.62661795,41.88574631],[-87.62642642,41.88573037],[-87.62627344,41.88562562],[-87.62626248,41.88535057],[-87.62616192,41.88203875],[-87.62603967,41.87697364],[-87.62602124,41.87527097],[-87.62622875,41.87490642],[-87.62651825,41.87458759],[-87.62674017,41.87422092],[-87.62681177,41.87390296],[-87.62671674,41.86998258],[-87.62650534,41.8618961],[-87.62646152,41.85839666],[-87.62645052,41.85538505],[-87.62588722,41.83168587],[-87.62571554,41.82479436],[-87.62559558,41.82205902],[-87.62531773,41.82184053],[-87.62481222,41.82176356],[-87.62146855,41.82182304],[-87.6195985,41.82179918],[-87.61927275,41.82159467],[-87.61916951,41.82114141],[-87.61904152,41.81647107],[-87.61886398,41.81060334],[-87.61870979,41.80649051],[-87.61862501,41.80609693],[-87.61850734,41.80209943],[-87.61837,41.79704338],[-87.61827747,41.79330112],[-87.61818208,41.78897325],[-87.61823387,41.78721154],[-87.61855535,41.78700534],[-87.62295155,41.78692741],[-87.62571013,41.78691375],[-87.63071591,41.78678888],[-87.63138428,41.78672283],[-87.63179043,41.78653465],[-87.63196241,41.78633845],[-87.63202159,41.78574489],[-87.63203413,41.78190641],[-87.63200845,41.78054935],[-87.63210436,41.78029821],[-87.63288133,41.77966301],[-87.63353805,41.77931417],[-87.63472183,41.77923152],[-87.63960133,41.77908576],[-87.64541085,41.77903522],[-87.64639263,41.779223],[-87.65709564,41.77908487]]},"properties":{"route_id":"G","route_name":"Green Line","route_color":"#009B3A","shape_id":309100011,"is_loop":false}},{"type":"Feature","geometry":{"type":"LineString","coordinates":[[-87.64467603,41.8913083],[-87.64443489,41.88870891],[-87.64438375,41.88694785],[-87.64435123,41.87445069],[-87.64432714,41.88553313],[-87.64416217,41.88810155],[-87.64408976,41.88685186],[-87.6437564,41.87793472],[-87.64337122,41.89117333],[-87.64285375,41.88311785],[-87.64284114,41.88192248],[-87.64279475,41.89133986],[-87.64270113,41.86979447],[-87.64268928,41.88561877],[-87.64261549,41.88307296],[-87.64253866,41.86732985],[-87.64242129,41.87691184],[-87.64241107,41.87813299],[-87.64230243,41.87213066],[-87.64227639,41.86712646],[-87.64225175,41.87443585],[-87.64217784,41.86985899],[-87.641782,41.885678],[-87.641782,41.885678],[-87.64131875,41.88332185],[-87.64128562,41.88174698],[-87.64127275,41.88198385],[-87.64117675,41.87874885],[-87.64115793,41.87795898],[-87.64115675,41.87814785],[-87.64108575,41.87559585],[-87.64104917,41.8819552],[-87.640984,41.875539],[-87.640984,41.875539],[-87.64096475,41.87176785],[-87.64090175,41.86987985],[-87.63998175,41.88309185],[-87.63997323,41.89143524],[-87.63988467,41.87785369],[-87.63987518,41.87775325],[-87.63986975,41.88354985],[-87.63985748,41.87765493],[-87.63978175,41.87800485],[-87.63976275,41.89158686],[-87.63940675,41.87936585],[-87.63938621,41.87683533],[-87.63906117,41.86740804],[-87.63902989,41.88194468],[-87.63883173,41.86714676],[-87.63831201,41.87801246],[-87.63711781,41.88452104],[-87.63700242,41.87953168],[-87.63693478,41.89175],[-87.63689875,41.88982886],[-87.63675675,41.88855986],[-87.63654775,41.87940785],[-87.63564298,41.88200766],[-87.63563923,41.89151524],[-87.63554935,41.86742411],[-87.635546,41.88688388],[-87.63552175,41.88313585],[-87.63548638,41.87688267],[-87.63546687,41.8916728],[-87.63540675,41.87805885],[-87.63535569,41.88625114],[-87.63528375,41.88433485],[-87.63521863,41.88204684],[-87.63515775,41.87925685],[-87.63511522,41.87792311],[-87.63416709,41.89172628],[-87.63410575,41.89011386],[-87.63409575,41.88873186],[-87.63402975,41.87943385],[-87.63398575,41.88580586],[-87.63392575,41.88334085],[-87.633924,41.888969],[-87.633924,41.888969],[-87.63389775,41.88205085],[-87.63388462,41.89073093],[-87.63388075,41.88077885],[-87.63381475,41.87947985],[-87.63379875,41.87820185],[-87.63378,41.882695],[-87.63374,41.878723],[-87.63302496,41.87538242],[-87.63288273,41.86751019],[-87.63287375,41.87808885],[-87.63277068,41.89304564],[-87.63274927,41.89132529],[-87.63270696,41.88984324],[-87.63270257,41.88848652],[-87.63265794,41.88201942],[-87.63263154,41.88639163],[-87.63263075,41.88314485],[-87.63260855,41.87692881],[-87.63257736,41.88402622],[-87.63246736,41.88179773],[-87.63244497,41.8918008],[-87.63243495,41.87951096],[-87.63241818,41.89070212],[-87.63237443,41.88938348],[-87.63234287,41.88855194],[-87.63232494,41.88431579],[-87.63230534,41.88630975],[-87.63227075,41.88184585],[-87.63218404,41.86727145],[-87.63217186,41.87873232],[-87.631739,41.8768],[-87.631722,41.875568],[-87.63128475,41.89076586],[-87.63120275,41.89175786],[-87.63111025,41.87948005],[-87.63103435,41.88428526],[-87.63098101,41.87694685],[-87.63095075,41.89170086],[-87.630886,41.885737],[-87.630886,41.885737],[-87.630886,41.885737],[-87.63087275,41.87907585],[-87.63084914,41.87665236],[-87.63084353,41.86749762],[-87.63075961,41.87430296],[-87.63074975,41.87464685],[-87.63069732,41.87201408],[-87.63061186,41.86724646],[-87.63059575,41.87441185],[-87.63058533,41.86866324],[-87.630537,41.86756371],[-87.63053075,41.87209885],[-87.63035976,41.86717697],[-87.63020179,41.88315492],[-87.62956083,41.89183481],[-87.62950604,41.88994544],[-87.62947275,41.87812885],[-87.62947275,41.89172186],[-87.62945975,41.88809986],[-87.62944,41.883164],[-87.62944,41.883164],[-87.6294021,41.88619143],[-87.62939275,41.88471585],[-87.629378,41.880703],[-87.629378,41.880703],[-87.62929962,41.88207815],[-87.629296,41.878183],[-87.629296,41.878183],[-87.62929075,41.88095585],[-87.62925341,41.87956864],[-87.629207,41.87804332],[-87.62915975,41.87593485],[-87.62913675,41.87475085],[-87.62905673,41.87251296],[-87.62875331,41.88313992],[-87.62856462,41.8820588],[-87.628196,41.876862],[-87.628196,41.876862],[-87.62817775,41.88835786],[-87.6281713,41.8915543],[-87.62815016,41.8870347],[-87.62811267,41.89015913],[-87.62811104,41.87951659],[-87.62805875,41.88590086],[-87.628021,41.891665],[-87.628021,41.891665],[-87.62797775,41.88337885],[-87.62795475,41.89158886],[-87.62792075,41.88913586],[-87.62790657,41.89174401],[-87.62790475,41.87814885],[-87.62784637,41.89240808],[-87.62783975,41.88086385],[-87.62783675,41.88669686],[-87.62783339,41.86754348],[-87.62782875,41.88560886],[-87.627813,41.884809],[-87.627813,41.884809],[-87.62779675,41.88435886],[-87.62777575,41.87832585],[-87.62776972,41.87700065],[-87.6277524,41.88308401],[-87.6277504,41.8908267],[-87.62770176,41.87500459],[-87.627696,41.880745],[-87.627696,41.880745],[-87.62768075,41.88193285],[-87.62767144,41.87206431],[-87.62763223,41.87033616],[-87.62762805,41.88675423],[-87.62761545,41.87940926],[-87.62761295,41.8690664],[-87.627596,41.878153],[-87.627596,41.878153],[-87.62755911,41.86564242],[-87.62754829,41.87685552],[-87.6275416,41.86760162],[-87.6275027,41.88317743],[-87.62750186,41.86418592],[-87.627479,41.874039],[-87.62745857,41.87489071],[-87.62742291,41.87298515],[-87.627402,41.867368],[-87.62737375,41.87041285],[-87.62737141,41.87315849],[-87.62733857,41.86767131],[-87.62733218,41.86916753],[-87.6272907,41.87305687],[-87.62726375,41.86567285],[-87.62721219,41.86397325],[-87.6271163,41.86729484],[-87.6270314058,41.8673785311],[-87.6266697,41.86755947],[-87.62659,41.867405],[-87.626189,41.88322],[-87.626037,41.879507],[-87.62597875,41.88214785],[-87.62597175,41.88316685],[-87.62588975,41.87958285],[-87.62579375,41.87577585],[-87.62575775,41.87821585],[-87.62563585,41.89178325],[-87.62506075,41.88836786],[-87.62493675,41.88836886],[-87.62468635,41.88691229],[-87.62462075,41.88511186],[-87.62459375,41.88342185],[-87.62452219,41.88063279],[-87.62450901,41.86760108],[-87.62445718,41.88806406],[-87.62445175,41.87843685],[-87.62443075,41.88808386],[-87.62440175,41.87627885],[-87.62438975,41.8867076],[-87.62438066,41.88715327],[-87.62437947,41.87456745],[-87.62433475,41.87329585],[-87.62433375,41.89269886],[-87.62433173,41.89088891],[-87.6243233,41.88469579],[-87.62430975,41.87201385],[-87.62429915,41.89104012],[-87.62429815,41.89101394],[-87.62428375,41.86909885],[-87.62427657,41.87029565],[-87.62426473,41.86712796],[-87.62424975,41.88990186],[-87.62423267,41.8656027],[-87.62421075,41.88237485],[-87.62419875,41.87814285],[-87.62419229,41.88067237],[-87.62419075,41.86389085],[-87.62416575,41.87669785],[-87.62413205,41.87554805],[-87.62408775,41.87340285],[-87.62403975,41.87179469],[-87.62403975,41.89177686],[-87.62402984,41.87584893],[-87.62402944,41.88814029],[-87.62401209,41.87051049],[-87.62400465,41.86599158],[-87.62399922,41.89084476],[-87.62397475,41.89021286],[-87.62397025,41.86915256],[-87.62396984,41.86790056],[-87.62396506,41.86451556],[-87.62394375,41.87322885],[-87.62362601,41.88429339],[-87.62358528,41.8731092],[-87.62355688,41.87486595],[-87.62326307,41.86734672],[-87.62286036,41.88833474],[-87.62285875,41.89250686],[-87.62271009,41.86566453],[-87.62259375,41.86434585],[-87.62253175,41.89183186],[-87.62214875,41.88455586],[-87.62212943,41.89095625],[-87.62100775,41.87327185],[-87.62097275,41.88779986],[-87.62085775,41.87315785],[-87.6208499,41.88809797],[-87.62084975,41.88703386],[-87.62084875,41.88758486],[-87.62082075,41.88428685],[-87.62080175,41.88469586],[-87.62066164,41.86936947],[-87.62060075,41.88736386],[-87.62053375,41.88969786],[-87.62051875,41.88478786],[-87.62038575,41.89234786],[-87.62036975,41.89116386],[-87.62036045,41.86936738],[-87.62031975,41.88455986],[-87.62027375,41.88943886],[-87.6201456,41.89289758],[-87.62008575,41.89085986],[-87.62001475,41.89186986],[-87.61799011,41.8919258],[-87.61786575,41.89100986],[-87.61780015,41.884327],[-87.61761293,41.89171857],[-87.61709275,41.88460886],[-87.61569498,41.86480063],[-87.61567532,41.88470828],[-87.61539675,41.89195686],[-87.61538175,41.89104986],[-87.61507805,41.88497317],[-87.64467603,41.8913083]]},"properties":{"route_id":"LOOP","route_name":"Downtown Loop","route_color":"#333333","is_loop":true}}]}